[{"OBJECT_NAME":"STARLINK-1047","OBJECT_ID":"2019-074AR","EPOCH":"2026-03-09T11:54:40.842720","MEAN_MOTION":15.32581056,"ECCENTRICITY":0.00022261,"INCLINATION":53.069,"RA_OF_ASC_NODE":146.9116,"ARG_OF_PERICENTER":203.7253,"MEAN_ANOMALY":156.3646,"EPHEMERIS_TYPE":0,"CLASSIFICATION_TYPE":"U","NORAD_CAT_ID":44752,"ELEMENT_SET_NO":999,"REV_AT_EPOCH":34931,"BSTAR":0.00039384285,"MEAN_MOTION_DOT":0.00012216,"MEAN_MOTION_DDOT":0},{"OBJECT_NAME":"STARLINK-35432","OBJECT_ID":"2025-232S","EPOCH":"2026-03-09T19:23:59.465760","MEAN_MOTION":15.30196323,"ECCENTRICITY":0.00013319,"INCLINATION":53.159,"RA_OF_ASC_NODE":103.3633,"ARG_OF_PERICENTER":93.818,"MEAN_ANOMALY":266.2973,"EPHEMERIS_TYPE":0,"CLASSIFICATION_TYPE":"U","NORAD_CAT_ID":66021,"ELEMENT_SET_NO":999,"REV_AT_EPOCH":2345,"BSTAR":0.00068795217,"MEAN_MOTION_DOT":0.00020069,"MEAN_MOTION_DDOT":0}]
